STARS (KUKAI)           
1 33498U 09002G   26139.38421418  .00002267  00000+0  21023-3 0  9997
2 33498  98.1536  85.5253 0006828 264.3022  95.7419 14.95525496934171
KKS-1 (KISEKI)          
1 33499U 09002H   26139.51522087  .00000780  00000+0  10272-3 0  9999
2 33499  98.1194  61.5045 0008665  32.4660 327.7084 14.83039861931949
UK-DMC 2                
1 35683U 09041C   26139.54995752  .00000746  00000+0  11561-3 0  9999
2 35683  97.8799 275.2236 0001605  79.6428 280.4963 14.75978183902344
OCEANSAT-2              
1 35931U 09051A   26139.46219734  .00000256  00000+0  20040-3 0  9994
2 35931  98.2302 129.1828 0014837 322.8724  37.1416 13.99650901875318
SWISSCUBE               
1 35932U 09051B   26139.50117800  .00000600  00000+0  12829-3 0  9990
2 35932  98.4054  46.8886 0005772 311.4963  48.5742 14.62419114884960
BEESAT-1                
1 35933U 09051C   26139.22195897  .00000496  00000+0  10960-3 0  9999
2 35933  98.3983  46.3002 0004593 331.8843  28.2109 14.61667178884954
ITUPSAT1                
1 35935U 09051E   26139.18753492  .00000454  00000+0  10393-3 0  9991
2 35935  98.4068  45.4878 0006997 339.3599  20.7317 14.60391532884509
DMSP 5D-3 F18 (USA 210) 
1 35951U 09057A   26139.50094978  .00000191  00000+0  12227-3 0  9994
2 35951  98.9028 120.3351 0010655 338.8207  21.2523 14.14879242855537
PROBA-2                 
1 36037U 09059B   26139.42340487  .00000084  00000+0  30043-4 0  9990
2 36037  98.2448 323.1757 0013549  15.3787 344.7819 14.54848744877341
YAOGAN-7                
1 36110U 09069A   26139.24845384  .00000269  00000+0  44453-4 0  9994
2 36110  98.0106  25.2895 0025634 130.4201 229.9252 14.77977178885357
XIWANG-1 (HOPE-1)       
1 36122U 09072B   26139.51621520 -.00000020  00000+0  63984-4 0  9991
2 36122 100.4018  93.8093 0006974 303.2030  56.8414 13.16438919789231
COSMOS 2463             
1 36519U 10017A   26139.45062492  .00000037  00000+0  23936-4 0  9992
2 36519  82.9594 270.8198 0035575 207.8051 217.7606 13.71663560803992
CARTOSAT-2B             
1 36795U 10035A   26139.51195049  .00000828  00000+0  12021-3 0  9990
2 36795  97.9969 190.2414 0009979 285.8804  74.1307 14.78622712855618
TISAT 1                 
1 36799U 10035E   26139.29608968  .00011916  00000+0  40672-3 0  9991
2 36799  98.0708  83.3131 0002950  41.6426 318.5037 15.30501637863281
YAOGAN-10               
1 36834U 10038A   26139.53492670  .00001584  00000+0  19086-3 0  9997
2 36834  97.8989 163.1675 0001624  91.3640  61.2009 14.85254198852955
SHIJIAN-6 04B (SJ-6 04B)
1 37180U 10051B   26139.52503846 -.00000189  00000+0 -10437-4 0  9998
2 37180  97.8704 144.6450 0011788  44.7734 315.4438 14.99258121851389
FENGYUN 3B              
1 37214U 10059A   26139.53604807  .00000127  00000+0  88998-4 0  9991
2 37214  98.9635 185.4256 0020908 268.0617 228.5514 14.14835045803372
COSMO-SKYMED 4          
1 37216U 10060A   26139.48173867  .00000745  00000+0  10011-3 0  9992
2 37216  97.8880 323.4974 0001414  87.1261 273.0114 14.82159785840312
O/OREOS (USA 219)       
1 37224U 10062C   26139.39787078  .00001145  00000+0  11434-3 0  9993
2 37224  71.9680 145.5446 0012733 126.1707 234.0644 14.93607613112344
RESOURCESAT-2           
1 37387U 11015A   26139.44328216  .00000042  00000+0  39205-4 0  9995
2 37387  98.7653 207.0815 0010822 346.3141  13.7741 14.21605417782096
YOUTHSAT                
1 37388U 11015B   26139.39848492  .00000105  00000+0  61472-4 0  9994
2 37388  98.3671 114.7541 0015704  68.3008  84.8019 14.25616764783538
APRIZESAT 6             
1 37793U 11044F   26139.56774600  .00000354  00000+0  57627-4 0  9997
2 37793  98.2380  49.4815 0043155 175.7276 307.3741 14.76871165792925
JUGNU                   
1 37839U 11058B   26139.15137891  .00000366  00000+0  51619-4 0  9991
2 37839  19.9594 124.8247 0018770 115.6487 328.0214 14.13767405754916
SRMSAT                  
1 37841U 11058D   26139.37842193  .00000362  00000+0  52414-4 0  9996
2 37841  19.9714 233.8472 0011590 247.3106 170.4637 14.11568835753740
SUOMI NPP               
1 37849U 11061A   26139.51167799  .00000052  00000+0  45765-4 0  9993
2 37849  98.7944  80.5857 0002740  62.9342 297.2113 14.19510690754373
YAOGAN-12               
1 37875U 11066B   26139.55224919  .00005269  00000+0  20616-3 0  9991
2 37875  97.1159 179.4717 0008833 338.1909  21.8953 15.26199817807670
