OBJECT_NAME,OBJECT_ID,EPOCH,MEAN_MOTION,ECCENTRICITY,INCLINATION,RA_OF_ASC_NODE,ARG_OF_PERICENTER,MEAN_ANOMALY,EPHEMERIS_TYPE,CLASSIFICATION_TYPE,NORAD_CAT_ID,ELEMENT_SET_NO,REV_AT_EPOCH,BSTAR,MEAN_MOTION_DOT,MEAN_MOTION_DDOT
STARS (KUKAI),2009-002G,2026-05-19T09:13:16.105152,14.95525496,.0006828,98.1536,85.5253,264.3022,95.7419,0,U,33498,999,93417,.21023E-3,.2267E-4,0
KKS-1 (KISEKI),2009-002H,2026-05-19T12:21:55.083168,14.83039861,.0008665,98.1194,61.5045,32.4660,327.7084,0,U,33499,999,93194,.10272E-3,.78E-5,0
UK-DMC 2,2009-041C,2026-05-19T13:11:56.329728,14.75978183,.0001605,97.8799,275.2236,79.6428,280.4963,0,U,35683,999,90234,.11561E-3,.746E-5,0
OCEANSAT-2,2009-051A,2026-05-19T11:05:33.850176,13.99650901,.0014837,98.2302,129.1828,322.8724,37.1416,0,U,35931,999,87531,.2004E-3,.256E-5,0
SWISSCUBE,2009-051B,2026-05-19T12:01:41.779200,14.62419114,.0005772,98.4054,46.8886,311.4963,48.5742,0,U,35932,999,88496,.12829E-3,.6E-5,0
BEESAT-1,2009-051C,2026-05-19T05:19:37.255008,14.61667178,.0004593,98.3983,46.3002,331.8843,28.2109,0,U,35933,999,88495,.1096E-3,.496E-5,0
ITUPSAT1,2009-051E,2026-05-19T04:30:03.017088,14.60391532,.00069974,98.4068,45.4878,339.3599,20.7317,0,U,35935,999,88450,.10392571E-3,.454E-5,0
DMSP 5D-3 F18 (USA 210),2009-057A,2026-05-19T12:01:22.060992,14.14879242,.0010655,98.9028,120.3351,338.8207,21.2523,0,U,35951,999,85553,.12227E-3,.191E-5,0
PROBA-2,2009-059B,2026-05-19T10:09:42.180768,14.54848744,.0013549,98.2448,323.1757,15.3787,344.7819,0,U,36037,999,87734,.30043E-4,.84E-6,0
YAOGAN-7,2009-069A,2026-05-19T05:57:46.411776,14.77977178,.0025634,98.0106,25.2895,130.4201,229.9252,0,U,36110,999,88535,.44453E-4,.269E-5,0
XIWANG-1 (HOPE-1),2009-072B,2026-05-19T12:23:20.993280,13.16438919,.0006974,100.4018,93.8093,303.2030,56.8414,0,U,36122,999,78923,.63984E-4,-.2E-6,0
COSMOS 2463,2010-017A,2026-05-19T10:48:53.993088,13.71663560,.0035575,82.9594,270.8198,207.8051,217.7606,0,U,36519,999,80399,.23936E-4,.37E-6,0
CARTOSAT-2B,2010-035A,2026-05-19T12:17:12.522336,14.78622712,.0009979,97.9969,190.2414,285.8804,74.1307,0,U,36795,999,85561,.12021E-3,.828E-5,0
TISAT 1,2010-035E,2026-05-19T07:06:22.148352,15.30501637,.000295,98.0708,83.3131,41.6426,318.5037,0,U,36799,999,86328,.40672E-3,.11916E-3,0
YAOGAN-10,2010-038A,2026-05-19T12:50:17.666880,14.85254198,.0001624,97.8989,163.1675,91.3640,61.2009,0,U,36834,999,85295,.19086E-3,.1584E-4,0
SHIJIAN-6 04B (SJ-6 04B),2010-051B,2026-05-19T12:36:03.322944,14.99258121,.0011788,97.8704,144.6450,44.7734,315.4438,0,U,37180,999,85138,-.10437E-4,-.189E-5,0
FENGYUN 3B,2010-059A,2026-05-19T12:51:54.553248,14.14835045,.0020908,98.9635,185.4256,268.0617,228.5514,0,U,37214,999,80337,.88998E-4,.127E-5,0
COSMO-SKYMED 4,2010-060A,2026-05-19T11:33:42.221088,14.82159785,.0001414,97.8880,323.4974,87.1261,273.0114,0,U,37216,999,84031,.10011E-3,.745E-5,0
O/OREOS (USA 219),2010-062C,2026-05-19T09:32:56.035392,14.93607613,.0012733,71.9680,145.5446,126.1707,234.0644,0,U,37224,999,11234,.11434E-3,.1145E-4,0
RESOURCESAT-2,2011-015A,2026-05-19T10:38:19.578624,14.21605417,.0010822,98.7653,207.0815,346.3141,13.7741,0,U,37387,999,78209,.39205E-4,.42E-6,0
YOUTHSAT,2011-015B,2026-05-19T09:33:49.097088,14.25616764,.0015704,98.3671,114.7541,68.3008,84.8019,0,U,37388,999,78353,.61472E-4,.105E-5,0
APRIZESAT 6,2011-044F,2026-05-19T13:37:33.254400,14.76871165,.0043155,98.2380,49.4815,175.7276,307.3741,0,U,37793,999,79292,.57627E-4,.354E-5,0
JUGNU,2011-058B,2026-05-19T03:37:59.137824,14.13767405,.00187705,19.9594,124.8247,115.6487,328.0214,0,U,37839,999,75491,.51619122E-4,.366E-5,0
SRMSAT,2011-058D,2026-05-19T09:04:55.654752,14.11568835,.001159,19.9714,233.8472,247.3106,170.4637,0,U,37841,999,75374,.52414E-4,.362E-5,0
SUOMI NPP,2011-061A,2026-05-19T12:16:48.978336,14.19510690,.000274,98.7944,80.5857,62.9342,297.2113,0,U,37849,999,75437,.45765E-4,.52E-6,0
YAOGAN-12,2011-066B,2026-05-19T13:15:14.330016,15.26199817,.0008833,97.1159,179.4717,338.1909,21.8953,0,U,37875,999,80767,.20616E-3,.5269E-4,0
